{"type":"FeatureCollection","features":[{"type":"Feature","properties":{"name":"新宿警察署","height":45.5},"geometry":{"type":"Polygon","coordinates":[[[139.6947235,35.6935981],[139.694535,35.6932813],[139.694245,35.6933951],[139.6944336,35.6937119],[139.6947235,35.6935981]]]}},{"type":"Feature","properties":{"name":"赤坂警察署赤坂見附交番","height":10},"geometry":{"type":"Polygon","coordinates":[[[139.7365823,35.6777123],[139.7366946,35.6777319],[139.7367125,35.6776692],[139.7366759,35.6776624],[139.7366,35.6776483],[139.7365823,35.6777123]]]}},{"type":"Feature","properties":{"name":"警視庁戸塚警察署","height":10},"geometry":{"type":"Polygon","coordinates":[[[139.7111654,35.7136261],[139.711243,35.7135963],[139.7112519,35.7136113],[139.7113309,35.7135806],[139.711337,35.7136059],[139.7115147,35.7135776],[139.7114994,35.7135143],[139.7114263,35.713526],[139.7113081,35.7133434],[139.7113484,35.7133228],[139.7113578,35.7133059],[139.7113585,35.7132836],[139.7113115,35.7132057],[139.7112379,35.7132348],[139.7111416,35.7130861],[139.7109535,35.7131625],[139.7110433,35.7133083],[139.7109611,35.7133417],[139.7109979,35.7134014],[139.7110801,35.713368],[139.7111182,35.7134299],[139.7110629,35.7134513],[139.7111654,35.7136261]]]}},{"type":"Feature","properties":{"name":"交番","height":10},"geometry":{"type":"Polygon","coordinates":[[[139.7254759,35.6944969],[139.7254384,35.6942554],[139.7255651,35.6941417],[139.7254983,35.693689],[139.7253585,35.6927073],[139.7246009,35.6929226],[139.7243189,35.6930253],[139.7244073,35.6931831],[139.7245148,35.6934561],[139.7245506,35.69356],[139.724849,35.6946262],[139.7254759,35.6944969]]]}},{"type":"Feature","properties":{"name":"市ヶ谷 見竹 交番","height":7},"geometry":{"type":"Polygon","coordinates":[[[139.7361127,35.6913533],[139.7361596,35.6913417],[139.736142,35.6912947],[139.7360952,35.6913063],[139.7361127,35.6913533]]]}},{"type":"Feature","properties":{"name":"原宿警察署","height":42},"geometry":{"type":"Polygon","coordinates":[[[139.7077998,35.6718878],[139.7076308,35.6716721],[139.707553,35.6717331],[139.7074538,35.6716241],[139.7070997,35.6718464],[139.7073572,35.6721558],[139.7077998,35.6718878]]]}},{"type":"Feature","properties":{"name":"交番","height":10},"geometry":{"type":"Polygon","coordinates":[[[139.6919068,35.6945469],[139.6919818,35.6945197],[139.6919603,35.6944765],[139.6918822,35.6945045],[139.6919068,35.6945469]]]}},{"type":"Feature","properties":{"name":"交番","height":10},"geometry":{"type":"Polygon","coordinates":[[[139.6874543,35.6743126],[139.687549,35.6743233],[139.6875414,35.6742659],[139.68754,35.6742627],[139.6875356,35.6742595],[139.6875299,35.6742578],[139.6874969,35.6742549],[139.6874908,35.674256],[139.6874853,35.6742604],[139.6874787,35.6742668],[139.6874543,35.6743126]]]}},{"type":"Feature","properties":{"name":"大塚警察署護国寺前交番","height":10},"geometry":{"type":"Polygon","coordinates":[[[139.7269682,35.7202226],[139.7270284,35.7202425],[139.7270512,35.7201969],[139.726991,35.720177],[139.7269682,35.7202226]]]}},{"type":"Feature","properties":{"name":"大塚警察署 茗荷谷駅前交番","height":7},"geometry":{"type":"Polygon","coordinates":[[[139.7366138,35.7180771],[139.73664,35.7181009],[139.7366779,35.7180735],[139.7366414,35.7180402],[139.7366221,35.7180542],[139.7366324,35.7180636],[139.7366138,35.7180771]]]}},{"type":"Feature","properties":{"name":"牛込警察署馬場下交番","height":10},"geometry":{"type":"Polygon","coordinates":[[[139.7184685,35.7066262],[139.7185349,35.7066452],[139.7185273,35.7066628],[139.7185119,35.706698],[139.7184455,35.706679],[139.7184685,35.7066262]]]}},{"type":"Feature","properties":{"name":"交番","height":10},"geometry":{"type":"Polygon","coordinates":[[[139.6944818,35.7063894],[139.6944673,35.706422],[139.6944686,35.7064349],[139.6944775,35.706447],[139.6944925,35.706456],[139.6945442,35.7064716],[139.6945852,35.7063825],[139.6945543,35.7063742],[139.694539,35.7063727],[139.6945231,35.7063772],[139.6945145,35.7063866],[139.6945096,35.7063992],[139.6944818,35.7063894]]]}},{"type":"Feature","properties":{"name":"交番","height":10},"geometry":{"type":"Polygon","coordinates":[[[139.6926495,35.6757473],[139.6926306,35.6757218],[139.6926584,35.6757082],[139.6926773,35.6757338],[139.6926495,35.6757473]]]}},{"type":"Feature","properties":{"name":"交番","height":10},"geometry":{"type":"Polygon","coordinates":[[[139.7277002,35.7171252],[139.7279934,35.7172192],[139.7279781,35.7172752],[139.7280807,35.7173078],[139.7280971,35.7172631],[139.7281979,35.7172973],[139.7283227,35.7170775],[139.7278024,35.7169066],[139.7277002,35.7171252]]]}},{"type":"Feature","properties":{"name":"目白警察署 雑司が谷交番","height":10},"geometry":{"type":"Polygon","coordinates":[[[139.718353,35.7242236],[139.7183522,35.724179],[139.7183079,35.7241795],[139.7183087,35.7242242],[139.718353,35.7242236]]]}},{"type":"Feature","properties":{"name":"池袋駅東口交番","height":7},"geometry":{"type":"Polygon","coordinates":[[[139.7128609,35.729661],[139.7128768,35.7296773],[139.7128962,35.7296973],[139.7129928,35.7296352],[139.7129574,35.7295989],[139.7128609,35.729661]]]}},{"type":"Feature","properties":{"name":"交番","height":10},"geometry":{"type":"Polygon","coordinates":[[[139.737561,35.6864713],[139.7375732,35.6864765],[139.7375797,35.6864664],[139.7375676,35.6864612],[139.737561,35.6864713]]]}}]}